[{"OBJECT_NAME":"GPS BIIF-7  (PRN 09)","OBJECT_ID":"2014-045A","EPOCH":"2026-04-01T06:27:45.787680","MEAN_MOTION":2.00553375,"ECCENTRICITY":0.0031386,"INCLINATION":55.3019,"RA_OF_ASC_NODE":91.5273,"ARG_OF_PERICENTER":119.8384,"MEAN_ANOMALY":240.4974,"EPHEMERIS_TYPE":0,"CLASSIFICATION_TYPE":"U","NORAD_CAT_ID":40105,"ELEMENT_SET_NO":999,"REV_AT_EPOCH":8453,"BSTAR":0,"MEAN_MOTION_DOT":2.1e-7,"MEAN_MOTION_DDOT":0},{"OBJECT_NAME":"GPS BIIF-8  (PRN 03)","OBJECT_ID":"2014-068A","EPOCH":"2026-04-01T03:29:06.664992","MEAN_MOTION":2.0057154,"ECCENTRICITY":0.0064104,"INCLINATION":56.9382,"RA_OF_ASC_NODE":33.9232,"ARG_OF_PERICENTER":68.3135,"MEAN_ANOMALY":292.3462,"EPHEMERIS_TYPE":0,"CLASSIFICATION_TYPE":"U","NORAD_CAT_ID":40294,"ELEMENT_SET_NO":999,"REV_AT_EPOCH":8366,"BSTAR":0,"MEAN_MOTION_DOT":-9.5e-7,"MEAN_MOTION_DDOT":0},{"OBJECT_NAME":"GPS BIIF-9  (PRN 26)","OBJECT_ID":"2015-013A","EPOCH":"2026-03-31T18:42:19.808352","MEAN_MOTION":2.00555949,"ECCENTRICITY":0.01088241,"INCLINATION":53.1801,"RA_OF_ASC_NODE":207.3783,"ARG_OF_PERICENTER":39.933,"MEAN_ANOMALY":320.8357,"EPHEMERIS_TYPE":0,"CLASSIFICATION_TYPE":"U","NORAD_CAT_ID":40534,"ELEMENT_SET_NO":999,"REV_AT_EPOCH":8027,"BSTAR":0,"MEAN_MOTION_DOT":-3.2e-7,"MEAN_MOTION_DDOT":0},{"OBJECT_NAME":"GPS BIIF-10 (PRN 08)","OBJECT_ID":"2015-033A","EPOCH":"2026-03-31T22:32:45.142368","MEAN_MOTION":2.00560219,"ECCENTRICITY":0.0114899,"INCLINATION":54.0443,"RA_OF_ASC_NODE":270.269,"ARG_OF_PERICENTER":29.5248,"MEAN_ANOMALY":331.0975,"EPHEMERIS_TYPE":0,"CLASSIFICATION_TYPE":"U","NORAD_CAT_ID":40730,"ELEMENT_SET_NO":999,"REV_AT_EPOCH":7844,"BSTAR":0,"MEAN_MOTION_DOT":-3.5e-7,"MEAN_MOTION_DDOT":0},{"OBJECT_NAME":"GPS BIIF-11 (PRN 10)","OBJECT_ID":"2015-062A","EPOCH":"2026-03-31T23:56:50.699328","MEAN_MOTION":2.00567089,"ECCENTRICITY":0.0111288,"INCLINATION":56.9112,"RA_OF_ASC_NODE":33.785,"ARG_OF_PERICENTER":231.5974,"MEAN_ANOMALY":127.3819,"EPHEMERIS_TYPE":0,"CLASSIFICATION_TYPE":"U","NORAD_CAT_ID":41019,"ELEMENT_SET_NO":999,"REV_AT_EPOCH":7628,"BSTAR":0,"MEAN_MOTION_DOT":-9.5e-7,"MEAN_MOTION_DDOT":0},{"OBJECT_NAME":"GPS BIIF-12 (PRN 32)","OBJECT_ID":"2016-007A","EPOCH":"2026-03-31T02:05:33.111456","MEAN_MOTION":2.00555465,"ECCENTRICITY":0.00959172,"INCLINATION":55.4741,"RA_OF_ASC_NODE":92.5542,"ARG_OF_PERICENTER":246.653,"MEAN_ANOMALY":112.3643,"EPHEMERIS_TYPE":0,"CLASSIFICATION_TYPE":"U","NORAD_CAT_ID":41328,"ELEMENT_SET_NO":999,"REV_AT_EPOCH":7427,"BSTAR":0,"MEAN_MOTION_DOT":3.4e-7,"MEAN_MOTION_DDOT":0},{"OBJECT_NAME":"GPS BIII-1  (PRN 04)","OBJECT_ID":"2018-109A","EPOCH":"2026-03-31T23:40:52.368672","MEAN_MOTION":2.00558117,"ECCENTRICITY":0.0037916,"INCLINATION":55.6343,"RA_OF_ASC_NODE":95.2303,"ARG_OF_PERICENTER":198.8263,"MEAN_ANOMALY":343.3155,"EPHEMERIS_TYPE":0,"CLASSIFICATION_TYPE":"U","NORAD_CAT_ID":43873,"ELEMENT_SET_NO":999,"REV_AT_EPOCH":5352,"BSTAR":0,"MEAN_MOTION_DOT":3.1e-7,"MEAN_MOTION_DDOT":0},{"OBJECT_NAME":"GPS BIII-2  (PRN 18)","OBJECT_ID":"2019-056A","EPOCH":"2026-04-01T11:32:54.197376","MEAN_MOTION":2.00568871,"ECCENTRICITY":0.0058668,"INCLINATION":55.6715,"RA_OF_ASC_NODE":334.1924,"ARG_OF_PERICENTER":197.6628,"MEAN_ANOMALY":242.8166,"EPHEMERIS_TYPE":0,"CLASSIFICATION_TYPE":"U","NORAD_CAT_ID":44506,"ELEMENT_SET_NO":999,"REV_AT_EPOCH":4853,"BSTAR":0,"MEAN_MOTION_DOT":-9.0e-7,"MEAN_MOTION_DDOT":0},{"OBJECT_NAME":"GPS BIII-3  (PRN 23)","OBJECT_ID":"2020-041A","EPOCH":"2026-04-01T03:40:08.979744","MEAN_MOTION":2.0056026,"ECCENTRICITY":0.0061724,"INCLINATION":56.6234,"RA_OF_ASC_NODE":31.9323,"ARG_OF_PERICENTER":205.2277,"MEAN_ANOMALY":299.4827,"EPHEMERIS_TYPE":0,"CLASSIFICATION_TYPE":"U","NORAD_CAT_ID":45854,"ELEMENT_SET_NO":999,"REV_AT_EPOCH":4249,"BSTAR":0,"MEAN_MOTION_DOT":-9.8e-7,"MEAN_MOTION_DDOT":0},{"OBJECT_NAME":"GPS BIII-4  (PRN 14)","OBJECT_ID":"2020-078A","EPOCH":"2026-03-31T17:25:14.261664","MEAN_MOTION":2.00565213,"ECCENTRICITY":0.00697188,"INCLINATION":53.9948,"RA_OF_ASC_NODE":213.9186,"ARG_OF_PERICENTER":205.0455,"MEAN_ANOMALY":325.3355,"EPHEMERIS_TYPE":0,"CLASSIFICATION_TYPE":"U","NORAD_CAT_ID":46826,"ELEMENT_SET_NO":999,"REV_AT_EPOCH":3995,"BSTAR":0,"MEAN_MOTION_DOT":-3.6e-7,"MEAN_MOTION_DDOT":0},{"OBJECT_NAME":"GPS BIII-5  (PRN 11)","OBJECT_ID":"2021-054A","EPOCH":"2026-03-28T01:21:33.319296","MEAN_MOTION":2.00573996,"ECCENTRICITY":0.0023817,"INCLINATION":55.2101,"RA_OF_ASC_NODE":335.7223,"ARG_OF_PERICENTER":231.1958,"MEAN_ANOMALY":354.6751,"EPHEMERIS_TYPE":0,"CLASSIFICATION_TYPE":"U","NORAD_CAT_ID":48859,"ELEMENT_SET_NO":999,"REV_AT_EPOCH":3512,"BSTAR":0,"MEAN_MOTION_DOT":-8.8e-7,"MEAN_MOTION_DDOT":0},{"OBJECT_NAME":"GPS BIII-6  (PRN 28)","OBJECT_ID":"2023-009A","EPOCH":"2026-03-28T04:24:38.672352","MEAN_MOTION":2.00547447,"ECCENTRICITY":0.00053805,"INCLINATION":55.1104,"RA_OF_ASC_NODE":151.7031,"ARG_OF_PERICENTER":326.6502,"MEAN_ANOMALY":28.0595,"EPHEMERIS_TYPE":0,"CLASSIFICATION_TYPE":"U","NORAD_CAT_ID":55268,"ELEMENT_SET_NO":999,"REV_AT_EPOCH":2361,"BSTAR":0,"MEAN_MOTION_DOT":0,"MEAN_MOTION_DDOT":0},{"OBJECT_NAME":"GPS BIII-7  (PRN 01)","OBJECT_ID":"2024-242A","EPOCH":"2026-04-01T07:22:38.515008","MEAN_MOTION":2.00570258,"ECCENTRICITY":0.0016546,"INCLINATION":54.8803,"RA_OF_ASC_NODE":337.2995,"ARG_OF_PERICENTER":0.3294,"MEAN_ANOMALY":175.6618,"EPHEMERIS_TYPE":0,"CLASSIFICATION_TYPE":"U","NORAD_CAT_ID":62339,"ELEMENT_SET_NO":999,"REV_AT_EPOCH":971,"BSTAR":0,"MEAN_MOTION_DOT":-9.5e-7,"MEAN_MOTION_DDOT":0},{"OBJECT_NAME":"GPS BIII-8  (PRN 21)","OBJECT_ID":"2025-116A","EPOCH":"2026-03-31T19:24:38.565216","MEAN_MOTION":2.00551423,"ECCENTRICITY":0.00089862,"INCLINATION":55.1857,"RA_OF_ASC_NODE":34.244,"ARG_OF_PERICENTER":331.3543,"MEAN_ANOMALY":28.5262,"EPHEMERIS_TYPE":0,"CLASSIFICATION_TYPE":"U","NORAD_CAT_ID":64202,"ELEMENT_SET_NO":999,"REV_AT_EPOCH":631,"BSTAR":0,"MEAN_MOTION_DOT":-9.5e-7,"MEAN_MOTION_DDOT":0},{"OBJECT_NAME":"GPS BIII-9  (PRN 20)","OBJECT_ID":"2026-017A","EPOCH":"2026-04-01T10:01:40.207872","MEAN_MOTION":2.00553558,"ECCENTRICITY":0.0024479,"INCLINATION":55.0384,"RA_OF_ASC_NODE":91.8344,"ARG_OF_PERICENTER":250.1256,"MEAN_ANOMALY":109.633,"EPHEMERIS_TYPE":0,"CLASSIFICATION_TYPE":"U","NORAD_CAT_ID":67588,"ELEMENT_SET_NO":999,"REV_AT_EPOCH":43007,"BSTAR":0,"MEAN_MOTION_DOT":2.0e-7,"MEAN_MOTION_DDOT":0}]
