NAVSTAR 71 (USA 256)    
1 40105U 14045A   26091.26927995  .00000021  00000+0  00000+0 0  9992
2 40105  55.3019  91.5273 0031386 119.8384 240.4974  2.00553375 84537
NAVSTAR 72 (USA 258)    
1 40294U 14068A   26091.14521603 -.00000095  00000+0  00000+0 0  9991
2 40294  56.9382  33.9232 0064104  68.3135 292.3462  2.00571540 83662
NAVSTAR 73 (USA 260)    
1 40534U 15013A   26090.77939593 -.00000032  00000+0  00000+0 0  9999
2 40534  53.1801 207.3783 0108824  39.9330 320.8357  2.00555949 80270
NAVSTAR 74 (USA 262)    
1 40730U 15033A   26090.93941137 -.00000035  00000+0  00000+0 0  9997
2 40730  54.0443 270.2690 0114899  29.5248 331.0975  2.00560219 78440
NAVSTAR 75 (USA 265)    
1 41019U 15062A   26090.99780902 -.00000095  00000+0  00000+0 0  9993
2 41019  56.9112  33.7850 0111288 231.5974 127.3819  2.00567089 76280
NAVSTAR 76 (USA 266)    
1 41328U 16007A   26090.08718879  .00000034  00000+0  00000+0 0  9992
2 41328  55.4741  92.5542 0095917 246.6530 112.3643  2.00555465 74272
NAVSTAR 77 (USA 289)    
1 43873U 18109A   26090.98671723  .00000031  00000+0  00000+0 0  9996
2 43873  55.6343  95.2303 0037916 198.8263 343.3155  2.00558117 53526
NAVSTAR 78 (USA 293)    
1 44506U 19056A   26091.48118284 -.00000090  00000+0  00000+0 0  9992
2 44506  55.6715 334.1924 0058668 197.6628 242.8166  2.00568871 48534
NAVSTAR 79 (USA 304)    
1 45854U 20041A   26091.15288171 -.00000098  00000+0  00000+0 0  9990
2 45854  56.6234  31.9323 0061724 205.2277 299.4827  2.00560260 42491
NAVSTAR 80 (USA 309)    
1 46826U 20078A   26090.72585951 -.00000036  00000+0  00000+0 0  9990
2 46826  53.9948 213.9186 0069718 205.0455 325.3355  2.00565213 39954
NAVSTAR 81 (USA 319)    
1 48859U 21054A   26087.05663564 -.00000088  00000+0  00000+0 0  9999
2 48859  55.2101 335.7223 0023817 231.1958 354.6751  2.00573996 35128
NAVSTAR 82 (USA 343)    
1 55268U 23009A   26087.18378093  .00000000  00000+0  00000+0 0  9990
2 55268  55.1104 151.7031 0005380 326.6502  28.0595  2.00547447 23616
NAVSTAR 83 (USA 440)    
1 62339U 24242A   26091.30739022 -.00000095  00000+0  00000+0 0  9994
2 62339  54.8803 337.2995 0016546   0.3294 175.6618  2.00570258  9711
NAVSTAR 84 (USA 545)    
1 64202U 25116A   26090.80877969 -.00000095  00000+0  00000+0 0  9993
2 64202  55.1857  34.2440 0008986 331.3543  28.5262  2.00551423  6314
NAVSTAR 85 (USA 581)    
1 67588U 26017A   26091.41782648  .00000020  00000+0  00000+0 0  9998
2 67588  55.0384  91.8344 0024479 250.1256 109.6330  2.00553558430076
